STARLINK-4729           
1 53804U 22111AH  25133.51745210 -.00000015  00000+0  17155-4 0  9995
2 53804  53.2160 166.4278 0001263  86.2435 273.8702 15.08836408147760
STARLINK-4763           
1 53805U 22111AJ  25133.34913507 -.00000175  00000+0  70698-5 0  9992
2 53805  53.2157 157.5286 0001484  69.4871 290.6280 15.08836864148685
STARLINK-4768           
1 53806U 22111AK  25133.38862743 -.00000004  00000+0  17835-4 0  9996
2 53806  53.2165 157.0686 0001165  86.3663 273.7463 15.08838966148698
BLUEWALKER-3            
1 53807U 22111AL  25134.18734734  .00007176  00000+0  23528-3 0  9995
2 53807  53.2309  99.2630 0008568  35.2277 324.9291 15.32705917148901
ZHONGXING-1E            
1 53813U 22112A   25134.10993172 -.00000133  00000+0  00000+0 0  9991
2 53813   0.0300  32.8781 0000994 329.1647 351.0529  1.00271383  9849
STRIX-1                 
1 53815U 22113A   25134.14454360  .00013269  00000+0  56257-3 0  9991
2 53815  97.5062 188.0774 0005729 190.4302 169.6817 15.23240422146385
STARLINK-4738           
1 53819U 22114B   25133.49213011  .00000937  00000+0  76925-4 0  9992
2 53819  53.2172 211.6282 0001382  87.5640 272.5510 15.08839422147516
STARLINK-4758           
1 53820U 22114C   25134.18769340  .00000820  00000+0  69586-4 0  9998
2 53820  53.2177 208.8557 0001327  91.9099 268.2045 15.08839553147073
STARLINK-4752           
1 53821U 22114D   25133.91667824  .00447317  00000+0  17432-1 0  9999
2 53821  53.2158 153.0931 0001272  89.3309 248.7413 15.23467511  6067
STARLINK-4748           
1 53823U 22114F   25133.36563823  .00000835  00000+0  70544-4 0  9990
2 53823  53.2163 167.3091 0001247  88.4658 271.6477 15.08829694148125
STARLINK-4757           
1 53824U 22114G   25133.64663711  .00000070  00000+0  22506-4 0  9995
2 53824  53.2175 210.4714 0001227  88.9994 271.1139 15.08833919147457
STARLINK-4751           
1 53825U 22114H   25133.65040833  .00000190  00000+0  30007-4 0  9999
2 53825  53.2178 211.1892 0001543 104.3596 255.7567 15.08830749147538
STARLINK-4756           
1 53826U 22114J   25133.63198147 -.00000342  00000+0 -34354-5 0  9991
2 53826  53.2171 211.0760 0001189  89.7503 270.3626 15.08835430147536
STARLINK-4764           
1 53827U 22114K   25133.51055285  .00000593  00000+0  55322-4 0  9997
2 53827  53.2180 211.7391 0001284 103.6521 256.4614 15.08833535147510
STARLINK-4760           
1 53828U 22114L   25134.22444280  .00000225  00000+0  32194-4 0  9998
2 53828  53.2173 208.3775 0001408  85.5680 274.5473 15.08847043147088
STARLINK-4759           
1 53829U 22114M   25134.23552857 -.00000979  00000+0 -43479-4 0  9996
2 53829  53.2164 208.4395 0001047  65.0623 295.0478 15.08826401147085
STARLINK-4761           
1 53830U 22114N   25133.62091949  .00000558  00000+0  53174-4 0  9994
2 53830  53.2168 211.0079 0001245  90.6336 269.4798 15.08839538146999
STARLINK-4649           
1 53831U 22114P   25134.23180724  .00000909  00000+0  75132-4 0  9991
2 53831  53.2163 208.4170 0001191  78.6360 281.4766 15.08857326147085
STARLINK-4747           
1 53832U 22114Q   25133.61355362  .00000312  00000+0  37666-4 0  9993
2 53832  53.2168 210.9611 0001343  91.5082 268.6064 15.08840920147533
STARLINK-4771           
1 53833U 22114R   25133.49308612 -.00000459  00000+0 -10758-4 0  9993
2 53833  53.2168 211.6295 0001151  92.1844 267.9280 15.08836694147513
STARLINK-4737           
1 53834U 22114S   25133.60618737  .00000270  00000+0  35018-4 0  9994
2 53834  53.2178 210.9150 0001209  89.9006 270.2125 15.08844094147535
STARLINK-4783           
1 53835U 22114T   25134.21339511 -.00000297  00000+0 -56547-6 0  9996
2 53835  53.2180 208.3058 0001326  97.1605 262.9538 15.08842155147085
STARLINK-4778           
1 53836U 22114U   25133.45629014 -.00000214  00000+0  46451-5 0  9992
2 53836  53.2169 202.1213 0001152  90.3705 269.7419 15.08835918147645
STARLINK-4776           
1 53837U 22114V   25133.47739205  .00000287  00000+0  36148-4 0  9999
2 53837  53.2172 211.5326 0001210  85.2246 274.8885 15.08834966147519
STARLINK-4773           
1 53838U 22114W   25134.18124295  .00000192  00000+0  30174-4 0  9994
2 53838  53.2171 198.8319 0001123  87.7070 272.4051 15.08842359147214
STARLINK-4784           
1 53839U 22114X   25134.18861308 -.00000436  00000+0 -93183-5 0  9991
2 53839  53.2168 198.8773 0001203  85.9385 274.1745 15.08839808147217
STARLINK-4766           
1 53840U 22114Y   25133.50875151  .00000097  00000+0  24197-4 0  9998
2 53840  53.2167 201.7461 0001185  89.2183 270.8945 15.08836950147656
STARLINK-4750           
1 53841U 22114Z   25133.58139947 -.00000845  00000+0 -35008-4 0  9999
2 53841  53.2175 201.4801 0001620  69.0198 291.0967 15.08839027147665
STARLINK-4754           
1 53842U 22114AA  25133.50042349  .00000233  00000+0  32745-4 0  9995
2 53842  53.2165 201.6920 0001198  85.5970 274.5159 15.08837353147658
STARLINK-4769           
1 53843U 22114AB  25133.51148144  .00000240  00000+0  33180-4 0  9999
2 53843  53.2165 201.7609 0001434  66.2003 293.9139 15.08833857147658
STARLINK-4745           
1 53844U 22114AC  25133.55929608 -.00001819  00000+0 -96226-4 0  9991
2 53844  53.2178 201.3504 0001270  95.8702 264.2435 15.08836226147669
STARLINK-4753           
1 53845U 22114AD  25133.50408693  .00004375  00000+0  29262-3 0  9996
2 53845  53.2165 201.7340 0001305  79.9447 280.1693 15.08861004147650
STARLINK-4746           
1 53846U 22114AE  25133.55192922 -.00000165  00000+0  77337-5 0  9999
2 53846  53.2171 201.3048 0001396  89.3519 270.7633 15.08830073147666
STARLINK-4777           
1 53847U 22114AF  25134.15913720  .00000843  00000+0  71021-4 0  9999
2 53847  53.2167 198.6946 0001251  89.2069 270.9066 15.08840687147211
STARLINK-4780           
1 53848U 22114AG  25133.47832489 -.00000539  00000+0 -15770-4 0  9999
2 53848  53.2159 201.5545 0001159  88.0035 272.1090 15.08823985147111
STARLINK-4770           
1 53849U 22114AH  25133.48937206 -.00000330  00000+0 -26537-5 0  9997
2 53849  53.2173 201.6246 0001157  95.8617 264.2507 15.08829968147658
STARLINK-4767           
1 53850U 22114AJ  25133.46726112 -.00001810  00000+0 -95665-4 0  9990
2 53850  53.2180 201.4910 0001308  87.4331 272.6811 15.08842285147650
STARLINK-4755           
1 53851U 22114AK  25133.61448120  .00000314  00000+0  37834-4 0  9998
2 53851  53.2181 200.9844 0001261  90.2546 269.8591 15.08833735147675
STARLINK-4797           
1 53852U 22114AL  25134.15773423  .00002117  00000+0  15099-3 0  9997
2 53852  53.2155 193.7014 0000997  91.3876 268.7230 15.08857193147287
STARLINK-4794           
1 53853U 22114AM  25133.60710779  .00000584  00000+0  54764-4 0  9991
2 53853  53.2165 200.9379 0000940  88.1999 271.9101 15.08836909147670
STARLINK-4800           
1 53854U 22114AN  25133.39097499  .00000094  00000+0  24004-4 0  9995
2 53854  53.2170 192.4479 0001380  92.5499 267.5651 15.08832725147770
STARLINK-4703           
1 53855U 22114AP  25134.14165064 -.00012325  00000+0 -75670-3 0  9990
2 53855  53.2172 198.5857 0001301  74.9809 285.1327 15.08882935147215
STARLINK-4795           
1 53856U 22114AQ  25133.44248476 -.00001219  00000+0 -58534-4 0  9993
2 53856  53.2163 192.0545 0001052  87.5191 272.5922 15.08823846147785
STARLINK-4809           
1 53857U 22114AR  25134.19223281 -.00002265  00000+0 -12428-3 0  9997
2 53857  53.2170 198.1905 0001119  87.9436 272.1684 15.08830222147227
STARLINK-4798           
1 53858U 22114AS  25133.45352727  .00000630  00000+0  57637-4 0  9998
2 53858  53.2165 192.1263 0001189  86.2087 273.9041 15.08841162147786
STARLINK-4790           
1 53859U 22114AT  25133.40332519  .00000133  00000+0  26460-4 0  9999
2 53859  53.2164 196.8117 0001133  88.3828 271.7294 15.08835216147712
STARLINK-4799           
1 53860U 22114AU  25133.44615343  .00000014  00000+0  18939-4 0  9994
2 53860  53.2158 192.0807 0001286  87.8874 272.2265 15.08839857147545
STARLINK-4781           
1 53861U 22114AV  25134.17848858 -.00000046  00000+0  15195-4 0  9992
2 53861  53.2159 188.8367 0001247  84.7701 275.3434 15.08849908147352
STARLINK-4788           
1 53863U 22114AX  25133.43880054  .00000680  00000+0  60789-4 0  9998
2 53863  53.2163 192.0365 0001191  78.4451 281.6675 15.08837699147782
STARLINK-4779           
1 53864U 22114AY  25134.12319859  .00024695  00000+0  15686-2 0  9992
2 53864  53.2150 188.4877 0001627  62.9650 297.1508 15.08738547147351
STARLINK-4762           
1 53866U 22114BA  25133.51792729  .00000045  00000+0  20929-4 0  9998
2 53866  53.2159 171.8483 0001251  82.9526 277.1608 15.08839189148071
STARLINK-4793           
1 53867U 22114BB  25133.43971976  .00002127  00000+0  15176-3 0  9993
2 53867  53.2161 182.0554 0000967  95.0987 265.0116 15.08823750147927
STARLINK-4789           
1 53868U 22114BC  25134.08460982  .00000621  00000+0  57116-4 0  9994
2 53868  53.2180 169.0017 0001475  68.9838 291.1312 15.08843676147621
STARLINK-4810           
1 53869U 22114BD  25133.40286108  .00000903  00000+0  74800-4 0  9998
2 53869  53.2160 181.8264 0001171  80.9916 279.1209 15.08837564147923
STARLINK-4732           
1 53870U 22114BE  25133.49213735 -.00001371  00000+0 -68049-4 0  9995
2 53870  53.2167 171.6939 0001198  84.5166 275.5963 15.08843473148074
STARLINK-4740           
1 53871U 22114BF  25133.39641295  .00000197  00000+0  30493-4 0  9996
2 53871  53.2161 171.8071 0001378  88.4622 271.6528 15.08824573148061
CHUANGXIN 16B (CX-16B)  
1 53876U 22102B   25133.88344827  .00018077  00000+0  80985-3 0  9999
2 53876  28.9951  27.0525 0002160 252.1953 107.8415 15.19883408145465
YUNHAI-1 03             
1 53877U 22115A   25134.19419698  .00000387  00000+0  15629-3 0  9996
2 53877  98.5377 132.8282 0001915 131.8222 228.3126 14.33359513138386
STARLINK-5028           
1 53886U 22119A   25133.57129753  .00000163  00000+0  28347-4 0  9995
2 53886  53.2166 231.6325 0000967  76.2751 283.8349 15.08830378145951
